24 ? ? ? P ? 20211125 1435 35.003 GAU 0.0 0.0 26285.701 0.0
23 ? ? ? P ? 20211125 1435 35.024 GAU 0.0 0.0 5033.532 0.0
22 ? ? ? P ? 20211125 1435 35.026 GAU 0.0 0.0 -5959.082 0.0
21 ? ? ? P ? 20211125 1435 35.033 GAU 0.0 0.0 -2163.588 0.0
20 ? ? ? P ? 20211125 1435 35.063 GAU 0.0 0.0 -4868.987 0.0
19 ? ? ? P ? 20211125 1435 35.084 GAU 0.0 0.0 2414.5183 0.0
18 ? ? ? P ? 20211125 1435 35.084 GAU 0.0 0.0 2352.2324 0.0
17 ? ? ? P ? 20211125 1435 35.122 GAU 0.0 0.0 -337.3622 0.0
16 ? ? ? P ? 20211125 1435 35.142 GAU 0.0 0.0 3.3292606 0.0
15 ? ? ? P ? 20211125 1435 35.148 GAU 0.0 0.0 -790.01196 0.0
14 ? ? ? P ? 20211125 1435 35.169 GAU 0.0 0.0 218.60925 0.0
13 ? ? ? P ? 20211125 1435 35.179 GAU 0.0 0.0 -117.00135 0.0
12 ? ? ? P ? 20211125 1435 35.188 GAU 0.0 0.0 -384.38083 0.0
11 ? ? ? P ? 20211125 1435 35.196 GAU 0.0 0.0 -138.73047 0.0
10 ? ? ? P ? 20211125 1435 35.219 GAU 0.0 0.0 -190.50017 0.0
9 ? ? ? P ? 20211125 1435 35.232 GAU 0.0 0.0 -147.53691 0.0
8 ? ? ? P ? 20211125 1435 35.260 GAU 0.0 0.0 374.1279 0.0
7 ? ? ? P ? 20211125 1435 35.275 GAU 0.0 0.0 201.92001 0.0
5 ? ? ? P ? 20211125 1435 35.281 GAU 0.0 0.0 -168.37524 0.0
6 ? ? ? P ? 20211125 1435 35.286 GAU 0.0 0.0 259.70816 0.0
3 ? ? ? P ? 20211125 1435 35.320 GAU 0.0 0.0 138.02216 0.0
4 ? ? ? P ? 20211125 1435 35.322 GAU 0.0 0.0 29.566538 0.0
2 ? ? ? P ? 20211125 1435 35.329 GAU 0.0 0.0 131.97824 0.0
1 ? ? ? P ? 20211125 1435 35.350 GAU 0.0 0.0 14.073213 0.0
